# Made by eph2tle, compiled Dec 27 2022 08:36:26
# Run at Tue Dec 27 08:36:28 2022
#
# Max error 0.2   (Following TLEs should be good to at least 0.2 degrees)
#
#    The following TLEs (Two-Line Elements) were generated by fitting
# a numerically-integrated ephemeris,  based on the orbit given below,
# to the SDP4/SGP4 models.  Each TLE is good for the interval between
# its epoch and the epoch of the subsequent TLE (usually one day).
# The maximum deviation between the numerically integrated ephemerides
# and the TLE-based ephemeris, in kilometers,  is given for each TLE
# as the "worst residual".
#
#    This fitting is done using the 'eph2tle' code packaged with Find_Orb.
# The code has details on how the TLEs were computed :
#
#    https://github.com/Bill-Gray/find_orb/eph2tle.cpp
#
#    Be warned:  the error given is that between the numerically
# integrated ephems and the TLE model.  There will usually be at
# least some additional difference between the ephems and the actual
# motion of the satellite,  especially if the ephemerides are based
# on a short arc.  If the following orbital elements say something
# like "[based on] 10 observations 2015 Jan. 1-13",  and the TLEs
# are for 2015 May,  the extrapolation may be tenuous at best.  If
# your application requires a specific level of accuracy,  you may
# want to contact me;  I can give you some idea as to the fit of the
# underlying data (and possibly TLEs based on newer data).
#
#   You can usually find the underlying observational data,  and the
# fitted orbit,  residuals,  ephemerides,  and sometimes some comments
# about the object,  among the pages listed at
#
#    https://www.projectpluto.com/pluto/mpecs/pseudo.htm
#
#    WARNING:  for this object,  "normal" TLEs cannot be fitted.  (This
# usually means an object with an hyperbolic or nearly-parabolic orbit.)
# For this and similar cases,   an alternative model is used,  in which
# most of the traditional TLE data is replaced by six signed 8-digit hex
# numbers.  These six numbers are a state vector,  numerically integrated
# using a simplified force model.  This is necessary for objects at L2 or
# L1,  and sometimes for objects in high orbits where the SDP4/SGP4 model
# fails.  Some documentation is in 'get_el.cpp' in the source code at
# https://www.github.com/Bill-Gray/sat_code ; look for 'hex' in that file,
# with the actual integration done in 'sdp4.cpp'.  But be aware:  it's my
# own extension,  doesn't work with other code,  and is therefore used
# only when necessary.
#
#    Also,  if you use a TLE outside the "correct" time range (between
# its MJD and that of the next TLE),  all bets are off.  I've carefully
# computed and minimized the worst error over the "correct" time frame,
# but the ephemeris may (or may not) diverge wildly outside of it.
#
# Ephem range: 59925.000000 60004.000000 1.000000
# Created Tue Dec 27 08:33:52 2022
# Ephemeris start: 12 Dec 2022  0:00:00
# Ephemeris end:    1 Mar 2023  0:00:00
# Times are all TDT
# Positions/velocities are in equatorial J2000
# Orbital elements:  2022-168C = Hakuto-R/LFL booster = NORAD 54698
#    Perihelion 2022 Nov 21.5531353 +/- 0.00341 TT = 13:16:30.88 (JD 2459905.0531353)
# Epoch 2022 Dec 27.0 TT = JDT 2459940.5   Earth MOID: 0.0003      Find_Orb
# M  34.5141939590 +/- 0.0033         (J2000 ecliptic)
# n   0.9736882018 +/- 7.4e-7         Peri.  191.3672486 +/- 0.006
# a   1.0081444821 +/- 5.11e-7        Node   227.4476715 +/- 0.0034
# e   0.020601657 +/- 6.16e-8         Incl.    0.0723108 +/- 0.000006
# P   1.01/369.72d           H 26.83  G  0.15   U  3.3
# q 0.9873750350 +/- 5.11e-7    Q 1.0289139293 +/- 5.18e-7
# 53 of 58 observations 2022 Dec. 12-27; mean residual 0".373
#
# 1 NoradU COSPAR   Epoch.epoch     dn/dt/2  d2n/dt2/6 BSTAR    T El# C
# 2 NoradU Inclina RAAscNode Eccent  ArgPeri MeanAno  MeanMotion Rev# C

# Worst residual: 0.56 km
# MJD 59925.000000 (2022 Dec 12  0:00)
2022-168C = Hakuto-R/LFL booster = NORAD 54698
1 54698U 22168C   22345.99919926 +001ITTCC +002APYLP +000EM4BQH 18222
2 54698                          +0004KLZR +000B0ZA8 +0002Y0XG     08

# Worst residual: 0.60 km
# MJD 59926.000000 (2022 Dec 13  0:00)
2022-168C = Hakuto-R/LFL booster = NORAD 54698
1 54698U 22168C   22346.99919926 +002CA4WB +004HJZCQ +0010UNFQH 18227
2 54698                          +0002OMH7 +0007U8B7 +0002AUGC     07

# Worst residual: 0.66 km
# MJD 59927.000000 (2022 Dec 14  0:00)
2022-168C = Hakuto-R/LFL booster = NORAD 54698
1 54698U 22168C   22347.99919926 +002W9DRW +0066WVOD +001J8WCRH 18229
2 54698                          +00020PCT +0006HVRV +0001ZFMK     03

# Worst residual: 0.96 km
# MJD 59928.000000 (2022 Dec 15  0:00)
2022-168C = Hakuto-R/LFL booster = NORAD 54698
1 54698U 22168C   22348.99919926 +003C01S4 +007N9Y7A +001ZGCLIH 18220
2 54698                          +0001NJBI +0005OGPG +0001S2OG     03

# Worst residual: 0.88 km
# MJD 59929.000000 (2022 Dec 16  0:00)
2022-168C = Hakuto-R/LFL booster = NORAD 54698
1 54698U 22168C   22349.99919926 +003P732J +008XR17U +002E5YWTH 18227
2 54698                          +0001EYIO +00053W8N +0001MS65     03

# Worst residual: 0.76 km
# MJD 59930.000000 (2022 Dec 17  0:00)
2022-168C = Hakuto-R/LFL booster = NORAD 54698
1 54698U 22168C   22350.99919926 +0040NKB5 +00A3Y87L +002RRQNSH 18220
2 54698                          +00018TXM +0004OFSG +0001IREU     08

# Worst residual: 0.94 km
# MJD 59931.000000 (2022 Dec 18  0:00)
2022-168C = Hakuto-R/LFL booster = NORAD 54698
1 54698U 22168C   22351.99919926 +004ATYGS +00B6V7D7 +0034IR3FH 18226
2 54698                          +000146CS +0004CBJ5 +0001FM4B     09

# Worst residual: 0.94 km
# MJD 59932.000000 (2022 Dec 19  0:00)
2022-168C = Hakuto-R/LFL booster = NORAD 54698
1 54698U 22168C   22352.99919926 +004K0HK7 +00C7689A +003GLI31H 18221
2 54698                          +00010GNZ +00042KFV +0001D46P     02

# Worst residual: 0.78 km
# MJD 59933.000000 (2022 Dec 20  0:00)
2022-168C = Hakuto-R/LFL booster = NORAD 54698
1 54698U 22168C   22353.99919926 +004SDRVG +00D5CZRZ +003S4XYDH 18220
2 54698                          +0000XD2V +0003UL7E +0001B4IZ     01

# Worst residual: 0.59 km
# MJD 59934.000000 (2022 Dec 21  0:00)
2022-168C = Hakuto-R/LFL booster = NORAD 54698
1 54698U 22168C   22354.99919926 +005023PP +00E1T0TZ +004390NRH 18222
2 54698                          +0000UNKG +0003NZOS +00019JN0     07

# Worst residual: 0.51 km
# MJD 59935.000000 (2022 Dec 22  0:00)
2022-168C = Hakuto-R/LFL booster = NORAD 54698
1 54698U 22168C   22355.99919926 +0057447Y +00EWSYUY +004E0XT9H 18226
2 54698                          +0000S6AO +0003IHOZ +00018AU3     05

# Worst residual: 0.63 km
# MJD 59936.000000 (2022 Dec 23  0:00)
2022-168C = Hakuto-R/LFL booster = NORAD 54698
1 54698U 22168C   22356.99919926 +005DL90S +00FQLBQZ +004OJBRGH 18225
2 54698                          +0000PSYP +0003DV9J +00017BTY     04

# Worst residual: 0.83 km
# MJD 59937.000000 (2022 Dec 24  0:00)
2022-168C = Hakuto-R/LFL booster = NORAD 54698
1 54698U 22168C   22357.99919926 +005JI2BE +00GJCUWX +004YUA1FH 18220
2 54698                          +0000NGKU +00039XST +00016KJD     03

# Worst residual: 0.94 km
# MJD 59938.000000 (2022 Dec 25  0:00)
2022-168C = Hakuto-R/LFL booster = NORAD 54698
1 54698U 22168C   22358.99919926 +005OUJUD +00HB8V5U +0058ZERFH 18220
2 54698                          +0000L3DU +00036JOZ +00015Z0K     02

# Worst residual: 0.82 km
# MJD 59939.000000 (2022 Dec 26  0:00)
2022-168C = Hakuto-R/LFL booster = NORAD 54698
1 54698U 22168C   22359.99919926 +005TMF3O +00I2DEV0 +005IZW61H 18222
2 54698                          +0000IOQL +00033K9N +00015HJI     05

# Worst residual: 0.52 km
# MJD 59940.000000 (2022 Dec 27  0:00)
2022-168C = Hakuto-R/LFL booster = NORAD 54698
1 54698U 22168C   22360.99919926 +005XTC0I +00ISTK3T +005SWIUQH 18225
2 54698                          +0000G8V6 +00030VT5 +000152P3     07

# Worst residual: 0.30 km
# MJD 59941.000000 (2022 Dec 28  0:00)
2022-168C = Hakuto-R/LFL booster = NORAD 54698
1 54698U 22168C   22361.99919926 +0061F30P +00JINL2X +0062PSOGH 18223
2 54698                          +0000DSJ2 +0002YFK9 +00014PF2     04

# Worst residual: 0.23 km
# MJD 59942.000000 (2022 Dec 29  0:00)
2022-168C = Hakuto-R/LFL booster = NORAD 54698
1 54698U 22168C   22362.99919926 +0064FO8S +00K7X7YK +006CFZW0H 18222
2 54698                          +0000BCP5 +0002W5MI +00014D00     01

# Worst residual: 0.45 km
# MJD 59943.000000 (2022 Dec 30  0:00)
2022-168C = Hakuto-R/LFL booster = NORAD 54698
1 54698U 22168C   22363.99919926 +0066VC6Y +00KWNTL5 +006M39YEH 18226
2 54698                          +00008YB7 +0002U0S7 +00014116     01

# Worst residual: 0.63 km
# MJD 59944.000000 (2022 Dec 31  0:00)
2022-168C = Hakuto-R/LFL booster = NORAD 54698
1 54698U 22168C   22364.99919926 +0068QIUF +00LKWILJ +006VNPU1H 18227
2 54698                          +00006M59 +0002S0BM +00013PBV     00

# Worst residual: 0.69 km
# MJD 59945.000000 (2023 Jan  1  0:00)
2022-168C = Hakuto-R/LFL booster = NORAD 54698
1 54698U 22168C   22365.99919926 +006A1U1A +00M8OB37 +00755DLMH 18220
2 54698                          +00004CS2 +0002Q3VV +00013DV3     02

# Worst residual: 0.65 km
# MJD 59946.000000 (2023 Jan  2  0:00)
2022-168C = Hakuto-R/LFL booster = NORAD 54698
1 54698U 22168C   23001.99919926 +006ATZQC +00MW056L +007EKBKDH 18229
2 54698                          +000026LG +0002OBCX +000132PK     00

# Worst residual: 0.59 km
# MJD 59947.000000 (2023 Jan  3  0:00)
2022-168C = Hakuto-R/LFL booster = NORAD 54698
1 54698U 22168C   23002.99919926 +006B3SIJ +00NIWYV4 +007NWN0WH 18226
2 54698                          +000003TL +0002MMT9 +00012S0K     01

# Worst residual: 0.69 km
# MJD 59948.000000 (2023 Jan  4  0:00)
2022-168C = Hakuto-R/LFL booster = NORAD 54698
1 54698U 22168C   23003.99919926 +006AW2DQ +00O5FRAJ +007X6GR7H 18220
2 54698                          -00001VFP +0002L2FX +00012HZ2     05

